{"fetched_at":"2026-07-20T07:40:25.481Z","source":"https://celestrak.org/NORAD/elements/gp.php?GROUP=planet&FORMAT=JSON","constellation":"pelican","records":[{"OBJECT_NAME":"PELICAN-1","OBJECT_ID":"2023-174AS","EPOCH":"2026-07-18T05:44:10.510656","CLASSIFICATION_TYPE":"U","MEAN_MOTION":15.72007488,"ECCENTRICITY":0.00063369,"INCLINATION":97.4011,"RA_OF_ASC_NODE":301.507,"ARG_OF_PERICENTER":192.5328,"MEAN_ANOMALY":167.5779,"EPHEMERIS_TYPE":0,"NORAD_CAT_ID":58296,"ELEMENT_SET_NO":999,"REV_AT_EPOCH":15104,"BSTAR":0.000041639243,"MEAN_MOTION_DOT":0.00005303,"MEAN_MOTION_DDOT":0},{"OBJECT_NAME":"PELICAN-2","OBJECT_ID":"2025-009Y","EPOCH":"2026-07-18T05:19:02.102304","CLASSIFICATION_TYPE":"U","MEAN_MOTION":15.40638954,"ECCENTRICITY":0.00022594,"INCLINATION":97.2052,"RA_OF_ASC_NODE":289.7302,"ARG_OF_PERICENTER":115.4966,"MEAN_ANOMALY":244.6515,"EPHEMERIS_TYPE":0,"NORAD_CAT_ID":62631,"ELEMENT_SET_NO":999,"REV_AT_EPOCH":8433,"BSTAR":0.00000172087,"MEAN_MOTION_DOT":-1e-7,"MEAN_MOTION_DDOT":0},{"OBJECT_NAME":"PELICAN-3","OBJECT_ID":"2025-188A","EPOCH":"2026-07-19T18:36:23.480064","CLASSIFICATION_TYPE":"U","MEAN_MOTION":15.41320307,"ECCENTRICITY":0.0002089,"INCLINATION":97.1979,"RA_OF_ASC_NODE":276.4457,"ARG_OF_PERICENTER":114.431,"MEAN_ANOMALY":245.7155,"EPHEMERIS_TYPE":0,"NORAD_CAT_ID":65315,"ELEMENT_SET_NO":999,"REV_AT_EPOCH":5033,"BSTAR":0.00011153,"MEAN_MOTION_DOT":0.00004564,"MEAN_MOTION_DDOT":0},{"OBJECT_NAME":"PELICAN-4","OBJECT_ID":"2025-188B","EPOCH":"2026-07-19T17:34:38.635968","CLASSIFICATION_TYPE":"U","MEAN_MOTION":15.40370263,"ECCENTRICITY":0.0001536,"INCLINATION":97.1985,"RA_OF_ASC_NODE":276.5486,"ARG_OF_PERICENTER":73.2647,"MEAN_ANOMALY":286.8769,"EPHEMERIS_TYPE":0,"NORAD_CAT_ID":65316,"ELEMENT_SET_NO":999,"REV_AT_EPOCH":5032,"BSTAR":0.00010755,"MEAN_MOTION_DOT":0.0000426,"MEAN_MOTION_DDOT":0},{"OBJECT_NAME":"PELICAN-5","OBJECT_ID":"2025-276B","EPOCH":"2026-07-19T17:52:03.707040","CLASSIFICATION_TYPE":"U","MEAN_MOTION":15.3290715,"ECCENTRICITY":0.0002024,"INCLINATION":97.4117,"RA_OF_ASC_NODE":275.724,"ARG_OF_PERICENTER":39.3452,"MEAN_ANOMALY":320.7937,"EPHEMERIS_TYPE":0,"NORAD_CAT_ID":66667,"ELEMENT_SET_NO":999,"REV_AT_EPOCH":3550,"BSTAR":0.00030701,"MEAN_MOTION_DOT":0.00009682,"MEAN_MOTION_DDOT":0},{"OBJECT_NAME":"PELICAN-6","OBJECT_ID":"2025-276AP","EPOCH":"2026-07-19T17:57:11.939040","CLASSIFICATION_TYPE":"U","MEAN_MOTION":15.31621966,"ECCENTRICITY":0.0002267,"INCLINATION":97.3717,"RA_OF_ASC_NODE":275.7008,"ARG_OF_PERICENTER":37.5552,"MEAN_ANOMALY":322.5847,"EPHEMERIS_TYPE":0,"NORAD_CAT_ID":66703,"ELEMENT_SET_NO":999,"REV_AT_EPOCH":3551,"BSTAR":0.0002279,"MEAN_MOTION_DOT":0.00006882,"MEAN_MOTION_DDOT":0},{"OBJECT_NAME":"PELICAN-7","OBJECT_ID":"2026-100AP","EPOCH":"2026-07-19T17:25:03.553248","CLASSIFICATION_TYPE":"U","MEAN_MOTION":15.23840743,"ECCENTRICITY":0.0003262,"INCLINATION":97.3812,"RA_OF_ASC_NODE":98.1021,"ARG_OF_PERICENTER":81.9517,"MEAN_ANOMALY":278.209,"EPHEMERIS_TYPE":0,"NORAD_CAT_ID":69017,"ELEMENT_SET_NO":999,"REV_AT_EPOCH":1176,"BSTAR":0.000072765,"MEAN_MOTION_DOT":0.00001684,"MEAN_MOTION_DDOT":0},{"OBJECT_NAME":"PELICAN-9","OBJECT_ID":"2026-100AR","EPOCH":"2026-07-19T04:19:03.625248","CLASSIFICATION_TYPE":"U","MEAN_MOTION":15.22888142,"ECCENTRICITY":0.00023617,"INCLINATION":97.3513,"RA_OF_ASC_NODE":97.3765,"ARG_OF_PERICENTER":111.9701,"MEAN_ANOMALY":248.1787,"EPHEMERIS_TYPE":0,"NORAD_CAT_ID":69019,"ELEMENT_SET_NO":999,"REV_AT_EPOCH":1167,"BSTAR":0.000048924182,"MEAN_MOTION_DOT":0.00001078,"MEAN_MOTION_DDOT":0}]}
