PELICAN-1               
1 58296U 23174AS  26199.23901054  .00005303  00000+0  41639-4 0  9995
2 58296  97.4011 301.5070 0006336 192.5328 167.5779 15.72007488151043
PELICAN-2               
1 62631U 25009Y   26199.22155211 -.00000010  00000+0  17209-5 0  9995
2 62631  97.2052 289.7302 0002259 115.4966 244.6515 15.40638954 84336
PELICAN-3               
1 65315U 25188A   26200.77527176  .00004564  00000+0  11153-3 0  9998
2 65315  97.1979 276.4457 0002089 114.4310 245.7155 15.41320307 50338
PELICAN-4               
1 65316U 25188B   26200.73239162  .00004260  00000+0  10755-3 0  9990
2 65316  97.1985 276.5486 0001536  73.2647 286.8769 15.40370263 50321
PELICAN-5               
1 66667U 25276B   26200.74448735  .00009682  00000+0  30701-3 0  9993
2 66667  97.4117 275.7240 0002024  39.3452 320.7937 15.32907150 35500
PELICAN-6               
1 66703U 25276AP  26200.74805485  .00006882  00000+0  22790-3 0  9991
2 66703  97.3717 275.7008 0002267  37.5552 322.5847 15.31621966 35516
PELICAN-7               
1 69017U 26100AP  26200.72573557  .00001684  00000+0  72765-4 0  9992
2 69017  97.3812  98.1021 0003262  81.9517 278.2090 15.23840743 11760
PELICAN-9               
1 69019U 26100AR  26200.17990307  .00001078  00000+0  48924-4 0  9996
2 69019  97.3513  97.3765 0002361 111.9701 248.1787 15.22888142 11677
